id,address,latitude,longitude,type_color,created_at,location,barangay_id,is_operational,static_pressure,remarks
2,"334 PALALI COR. DANSALAN ST, BRGY BARANGKA ILAYA, MANDALUYONG CITY",14.570837,121.044054,"BARREL/YELLOW","""2025-06-25T06:32:58.871Z""","0101000020E61000008350DEC7D1425E4089B14CBF44242D40",3,true,50,
3,"ILAYA 301 DANSALAN ST., BRGY BARANGKA ILAYA, MANDALUYONG CITY",14.572176,121.04399,"BARREL/YELLOW","""2025-06-25T06:32:58.871Z""","0101000020E610000077D66EBBD0425E40B91CAF40F4242D40",3,false,,
4,"EDSA COR. APO ST., BRGY BARANGKA ILAYA, MANDALUYONG CITY",14.571651,121.046656,"BARREL/YELLOW","""2025-06-25T06:32:58.871Z""","0101000020E6100000618A7269FC425E408E739B70AF242D40",3,true,50,
5,"ILAYA STREET COR. PINATUBO, BRGY BARANGKA ILAYA, MANDALUYONG CITY",14.569165,121.044857,"BARREL/YELLOW","""2025-06-25T06:32:58.871Z""","0101000020E6100000C9FFE4EFDE425E40410E4A9869232D40",3,true,50,"Other outlet is defective"
6,"PASIG RIVER NEAR VICTORIA STORE PHASE 1, BRGY. BUAYANG BATO, MANDALUYONG CITY",14.568892,121.049156,"BARREL/YELLOW","""2025-06-25T06:32:58.871Z""","0101000020E6100000BD19355F25435E407DE9EDCF45232D40",4,true,50,
7,"PIONER STREET COR. SHERIDAN, BRGY. BUAYANG BATO, MANDALUYONG CITY",14.570994,121.058136,"BARREL/YELLOW","""2025-06-25T06:32:58.871Z""","0101000020E610000019AE0E80B8435E40A96C585359242D40",4,false,,"Loose Thread"
8,"SHAW BLVRD COR. SHERIDAN STREET, BRGY. HIGHWAY HILLS, MANDALUYONG CITY",14.577867,121.05683,"BARREL/YELLOW","""2025-06-25T06:32:58.871Z""","0101000020E6100000A1DB4B1AA3435E4011E0F42EDE272D40",2,true,50,
9,"GREENFIELD DISTRICT UNITED STREET, BRGY. HIGHWAY HILLS MANDALUYONG CITY",14.577356,121.054694,"BARREL/YELLOW","""2025-06-25T06:32:58.871Z""","0101000020E61000006552431B80435E407B4CA4349B272D40",2,true,50,
10,"EDSA COR, MANDISON STREET, BRGY. HIGHWAY HILLS MANDALUYONG CITY",14.574123,121.049703,"BARREL/YELLOW","""2025-06-25T06:32:58.871Z""","0101000020E6100000D6E07D552E435E4048C32973F3252D40",2,false,,"No water supply"
11,"SULTAN STREET COR EDSA, BRGY. HIGHWAY HILLS MANDALUYONG CITY",14.580703,121.052738,"BARREL/YELLOW","""2025-06-25T06:32:58.871Z""","0101000020E61000006A50340F60435E40D06053E751292D40",2,true,50,
12,"CALBAYOG STREET COR. ESTEBAN, BRGY. HIGHWAY HILLS MANDALUYONG CITY",14.577514,121.048674,"BARREL/YELLOW","""2025-06-25T06:33:18.077Z""","0101000020E6100000988A8D791D435E40DCF63DEAAF272D40",2,true,50,
13,"30 DOMINGO M GUEVARA STREET COR. CALBAYOG, BRGY. HIGHWAY HILLS MANDALUYONG CITY",14.579113,121.049534,"BARREL/YELLOW","""2025-06-25T06:33:18.077Z""","0101000020E61000009082A7902B435E407C60C77F81282D40",2,true,50,
14,"EDSA COR. DOMINGO M GUEVARA, BRGY. HIGHWAY HILLS MANDALUYONG CITY",14.578405,121.051423,"BARREL/YELLOW","""2025-06-25T06:33:18.077Z""","0101000020E6100000C8D0B1834A435E408EAF3DB324282D40",2,true,50,
15,"RSG TOWNHOMES A-17 CALBAYOG ST, BRGY. HIGHWAY HILLS MANDALUYONG CITY",14.5779,121.047134,"BARREL/YELLOW","""2025-06-25T06:33:18.077Z""","0101000020E6100000E621533E04435E4080B74082E2272D40",2,true,50,
16,"RSG TOWNHOMES J-4 CALBAYOG ST., BRGY. HIGHWAY HILLS MANDALUYONG CITY",14.577633,121.047541,"BARREL/YELLOW","""2025-06-25T06:33:18.077Z""","0101000020E6100000060E68E90A435E40452E3883BF272D40",2,true,50,
17,"BANAHAW STREET COR. MARIVELES, BRGY. HIGHWAY HILLS MANDALUYONG CITY",14.581203,121.048589,"BARREL/YELLOW","""2025-06-25T06:33:18.077Z""","0101000020E6100000817C09151C435E4097AC8A7093292D40",2,true,50,"Other outlet is defective"
18,"CALBAYOG STREET COR. SAMAT, BRGY. HIGHWAY HILLS MANDALUYONG CITY",14.582696,121.048731,"BARREL/YELLOW","""2025-06-25T06:33:18.077Z""","0101000020E61000004AD3A0681E435E4021054F21572A2D40",2,true,50,
19,"DR. JOSE FERNANDEZ, BRGY. HIGHWAY HILLS, MANDALUYONG CITY",14.582502,121.046691,"BARREL/YELLOW","""2025-06-25T06:33:18.077Z""","0101000020E61000001F813FFCFC425E408DB5BFB33D2A2D40",2,true,50,
20,"STANDFORD COR SHAW BLVD., BRGY. WACK WACK, MANDALUYONG CITY",14.586782,121.050165,"BARREL/YELLOW","""2025-06-25T06:33:18.077Z""","0101000020E6100000D99942E735435E4050C3B7B06E2C2D40",1,true,50,
21,"613 LEE STREET, BRGY. WACK WACK, MANDALUYONG CITY",14.58738,121.047292,"BARREL/YELLOW","""2025-06-25T06:33:18.077Z""","0101000020E6100000325706D506435E4022A64412BD2C2D40",1,false,,"Unserviceable 2 Sides Loose Tread"
22,"ORTIGAS AVE. LA SALLE GREEN HILLS, BRGY. WACK WACK, MANDALUYONG CITY",14.598207,121.051928,"BARREL/YELLOW","""2025-06-25T06:33:18.077Z""","0101000020E6100000CA6FD1C952435E40FF791A3048322D40",1,true,50,
23,"623 SHAW BLVD., BRGY. WACK WACK, MANDALUYONG CITY",14.584585,121.049722,"BARREL/YELLOW","""2025-06-25T06:34:57.757Z""","0101000020E610000012F92EA52E435E40DE76A1B94E2B2D40",1,true,50,
24,"BARANGAY WACK-WACK 571 WACK WACK ROAD ROYAL MANSION STREET, MANDALUYONG CITY",14.587484,121.052632,"BARREL/YELLOW","""2025-06-25T06:34:57.757Z""","0101000020E610000047AE9B525E435E40B6D8EDB3CA2C2D40",1,true,55,
25,"BARANGAY WACK-WACK 506 WACK WACK ROAD (CENTER) STREET, MANDALUYONG CITY",14.588091,121.055173,"BARREL/YELLOW","""2025-06-25T06:34:57.757Z""","0101000020E6100000D2A755F487435E40D52478431A2D2D40",1,true,50,
26,"BARANGAY WACK-WACK 1552 STANDFORD YALE STREET, MANDALUYONG CITY",14.584564,121.053004,"BARREL/YELLOW","""2025-06-25T06:34:57.757Z""","0101000020E6100000A9A3E36A64435E4080D6FCF84B2B2D40",1,true,40,
27,"BARANGAY WACK-WACK 1555 STANDFORD EDSA (DULO) STREET, MANDALUYONG CITY",14.584316,121.054402,"BARREL/YELLOW","""2025-06-25T06:34:57.757Z""","0101000020E610000091B586527B435E401F0F7D772B2B2D40",1,true,30,
28,"BARANGAY WACK-WACK 703 STANFORD ( DULO) BUFFALO STREET, MANDALUYONG CITY",14.600562,121.052414,"DEEP WELL","""2025-06-25T06:34:57.757Z""","0101000020E610000090F63FC05A435E40D270CADC7C332D40",1,true,,
29,"BARANGAY WACK-WACK 1548 PRINCETON COR HAVARD STREET, MANDALUYONG CITY",14.585537,121.054425,"BARREL/YELLOW","""2025-06-25T06:34:57.757Z""","0101000020E61000006DC5FEB27B435E4027327381CB2B2D40",1,true,55,
30,"BARANGAY WACK-WACK 1548 PRINCETON COR CROMWELL STREET, MANDALUYONG CITY",14.585559,121.051388,"BARREL/YELLOW","""2025-06-25T06:34:57.757Z""","0101000020E61000000ADAE4F049435E40C6C1A563CE2B2D40",1,true,60,
1,"LIONS ROAD - BONI, BRGY BARANGKA ILAYA, MANDALUYONG CITY",14.572416,121.045246,"BARREL/YELLOW","""2025-06-25T06:32:58.871Z""","0101000020E610000097917A4FE5425E400E6ABFB513252D40",3,true,50,"Other outlet is defective"
31,"BARANGAY WACK-WACK 498 NORTH WESTERN LA SALLE STREET, MANDALUYONG CITY",14.597496,121.054068,"BARREL/YELLOW","""2025-06-25T06:34:57.757Z""","0101000020E6100000A6F0A0D975435E404CFBE6FEEA312D40",1,true,55,
32,"BARANGAY WACK-WACK 126-A MARYLAND COR COLGATE STREET, MANDALUYONG CITY",14.598066,121.055874,"BARREL/YELLOW","""2025-06-25T06:34:57.757Z""","0101000020E610000097AC8A7093435E40F6B2EDB435322D40",1,true,50,
33,"BARANGAY WACK-WACK 61 LA SALLE COR CONNECTICUT STREET, MANDALUYONG CITY",14.600852,121.055707,"BARREL/YELLOW","""2025-06-25T06:35:24.500Z""","0101000020E610000021CA17B490435E40EE7893DFA2332D40",1,true,50,
34,"BARANGAY WACK-WACK 330 KANSAS COR LAFAYETTE STREET, MANDALUYONG CITY",14.599682,121.05843,"BARREL/YELLOW","""2025-06-25T06:35:24.500Z""","0101000020E6100000BDC62E51BD435E40EFFFE38409332D40",1,true,55,
35,"BARANGAY WACK-WACK 898 HAVARD COR NOTRE DAME STREET, MANDALUYONG CITY",14.595322,121.054703,"BARREL/YELLOW","""2025-06-25T06:35:24.500Z""","0101000020E61000008FFF024180435E40BA2D910BCE302D40",1,true,50,
36,"BARANGAY WACK-WACK 837 HAVARD COR BERKLEY STREET, MANDALUYONG CITY",14.593342,121.056598,"BARREL/YELLOW","""2025-06-25T06:35:24.500Z""","0101000020E610000037C1374D9F435E40BCAFCA85CA2F2D40",1,true,50,
37,"BARANGAY WACK-WACK HAVARD COR COLUMBIA STREET, MANDALUYONG CITY",14.590159,121.056698,"BARREL/YELLOW","""2025-06-25T06:35:24.500Z""","0101000020E6100000E9EFA5F0A0435E4050E10852292E2D40",1,true,50,
38,"BARANGAY WACK-WACK 410 DUKE COR WYOMING STREET, MANDALUYONG CITY",14.600157,121.057306,"BARREL/YELLOW","""2025-06-25T06:35:24.500Z""","0101000020E610000055F7C8E6AA435E4052EE3EC747332D40",1,true,50,
39,"BARANGAY WACK-WACK 667 DUKE COR WISCONSIN STREET, MANDALUYONG CITY",14.600295,121.054277,"BARREL/YELLOW","""2025-06-25T06:35:24.500Z""","0101000020E610000033FB3C4679435E4096E7C1DD59332D40",1,true,50,
40,"BARANGAY WACK-WACK DUKE COR MISSOURE STREET, MANDALUYONG CITY",14.600849,121.055688,"DEEP WELL","""2025-06-25T06:35:24.500Z""","0101000020E6100000E6B1666490435E402AABE97AA2332D40",1,true,,
41,"BARANGAY WACK-WACK 462 DUKE COR HOLY CROSS STREET, MANDALUYONG CITY",14.600264,121.051527,"BARREL/YELLOW","""2025-06-25T06:35:24.500Z""","0101000020E61000001AF7E6374C435E40AAEE91CD55332D40",1,true,50,
42,"BARANGAY WACK-WACK COR NOTRE DAME GATE 5 STREET, MANDALUYONG CITY",14.595321,121.054719,"BARREL/YELLOW","""2025-06-25T06:35:24.500Z""","0101000020E610000012DE1E8480435E40793E03EACD302D40",1,true,50,
43,"BARANGAY WACK-WACK COLUMBIA STREET, MANDALUYONG CITY",14.596668,121.058294,"BARREL/YELLOW","""2025-06-25T06:35:44.885Z""","0101000020E610000065E3C116BB435E40B323D5777E312D40",1,true,50,
44,"BARANGAY WACK-WACK 330 COLUMBIA COR LAFAYETTE STREET, MANDALUYONG CITY",14.599683,121.05843,"BARREL/YELLOW","""2025-06-25T06:35:44.885Z""","0101000020E6100000BDC62E51BD435E4031EF71A609332D40",1,true,50,
45,"BARANGAY WACK-WACK 606 LA SALLE STREET, MANDALUYONG CITY",14.598565,121.055031,"DEEP WELL","""2025-06-25T06:35:44.885Z""","0101000020E61000000951BEA085435E407C0F971C77322D40",1,true,,
46,"SEN. NEPTALI A. GONZALES STREET, SITIO 4 SAN JOSE, MANDALUYONG CITY",14.585075,121.03195,"BARREL/YELLOW","""2025-06-25T06:35:44.885Z""","0101000020E6100000DC4603780B425E40166A4DF38E2B2D40",20,true,,
47,"SEN.NEPTALI A. GONZALES STREET, SITIO 3, MANDALUYONG CITY",14.582343,121.030445,"BARREL/YELLOW","""2025-06-25T06:35:44.885Z""","0101000020E6100000E9D495CFF2415E40EB1B98DC282A2D40",20,true,,
48,"SEN. NEPTALI A. GONZALES STREET, COR. BONI. AVE., SAN JOSE, MANDALUYONG CITY",14.580878,121.029543,"BARREL/YELLOW","""2025-06-25T06:35:44.885Z""","0101000020E6100000D9B45208E4415E4089EE59D768292D40",20,true,,
49,"SENATOR NEPTALI A. GONZALES STREET, SITIO 1, SAN JOSE, MANDALUYONG CITY",14.578712,121.028446,"BARREL/YELLOW","""2025-06-25T06:35:44.885Z""","0101000020E6100000EEEC2B0FD2415E40029B73F04C282D40",20,true,,
50,"169 I LOPEZ ST BARANGAY NEW ZANIGA, MANDALUYONG CITY",14.586276,121.02879,"BARREL/YELLOW","""2025-06-25T06:35:44.885Z""","0101000020E6100000EB1C03B2D7415E4001DC2C5E2C2C2D40",19,true,,
51,"BONI AVE. NEW ZANIGA, MANDALUYONG CITY",14.581878,121.029116,"BARREL/YELLOW","""2025-06-25T06:35:44.885Z""","0101000020E610000095F25A09DD415E401686C8E9EB292D40",19,true,,
52,"I.LOPEZ STREET. NEW ZANIGA, MANDALUYONG CITY",14.583922,121.02865,"BARREL/YELLOW","""2025-06-25T06:35:44.885Z""","0101000020E6100000F241CF66D5415E406FD40AD3F72A2D40",19,true,,
53,"BONI AVE. F. ORTIGAS ST, BRGY. NEW ZANIGA,MANDALUYONG CITY",14.583799,121.027696,"BARREL/YELLOW","""2025-06-25T06:36:03.524Z""","0101000020E6100000B98E71C5C5415E4001E0D8B3E72A2D40",19,true,,
54,"PITONG GATANG REV.AGLIPAY , BRGY.OLD ZANIGA, MANDALUYONG CITY",14.581982,121.025247,"BARREL/YELLOW","""2025-06-25T06:36:03.524Z""","0101000020E61000009DD497A59D415E40AAB8718BF9292D40",25,false,,"Stock Cap Gasket"
55,"REVEREND GREGORIO AGLIPAY STREET, BRGY OLD ZANIGA MANDALUYONG CITY",14.583117,121.024902,"BARREL/YELLOW","""2025-06-25T06:36:03.524Z""","0101000020E6100000B8E68EFE97415E40B77BB94F8E2A2D40",25,true,,"Wall Obstruction"
56,"T. HERNANDEZ STREET., CORNER PARADA ST., BRGY OLD ZANIGA, MANDALUYONG CITY",14.578747,121.027116,"BARREL/YELLOW","""2025-06-25T06:36:03.524Z""","0101000020E6100000B24CBF44BC415E40F450DB8651282D40",25,true,,
58,"LERMA ST. CORNER CANTERAS BARANGAY OLD ZANIGA, MANDALUYONG CITY",14.579822,121.027614,"BARREL/YELLOW","""2025-06-25T06:36:03.524Z""","0101000020E61000005ABA826DC4415E40AC00DF6DDE282D40",25,true,,
59,"ILANG ILANG STREET BARANGAY BARANGKA DRIVE , MANDALUYONG CITY",14.571763,121.036668,"BARREL/YELLOW","""2025-06-25T06:36:03.524Z""","0101000020E6100000D333BDC458425E402E20B41EBE242D40",10,true,,
60,"HINAHON ST. BARANGKA DRIVE, MANDALUYONG CITY",14.572655,121.038824,"BARREL/YELLOW","""2025-06-25T06:36:03.524Z""","0101000020E61000003293A8177C425E4021C8410933252D40",10,true,,
61,"HILAGA ST. BARANGKA DRIVE, MANDALUYONG CITY",14.57245,121.03742,"BARREL/YELLOW","""2025-06-25T06:36:03.524Z""","0101000020E6100000D80DDB1665425E40BE30992A18252D40",10,true,,
62,"CHAMPACA ST. BARANGKA DRIVE,MANDALUYONG CITY",14.573061,121.036475,"BARREL/YELLOW","""2025-06-25T06:36:03.524Z""","0101000020E6100000C8073D9B55425E40E2395B4068252D40",10,true,,
63,"SOUTH SIKAP ST. PLAINVIEW, MANDALUYONG CITY",14.57569,121.036288,"BARREL/YELLOW","""2025-06-25T06:36:29.373Z""","0101000020E61000002F4FE78A52425E40BB44F5D6C0262D40",12,true,,
64,"SAN FRANCISCO ST, BARANGAY PLAINVIEW, MANDALUYONG CITY",14.576148,121.032628,"BARREL/YELLOW","""2025-06-25T06:36:29.373Z""","0101000020E6100000C53BC09316425E40C64FE3DEFC262D40",12,false,,
65,"SAN RAFAEL ST., BARANGAY PLAINVIEW, MANDALUYONG CITY",14.580218,121.033663,"BARREL/YELLOW","""2025-06-25T06:36:29.373Z""","0101000020E61000007505DB8827425E40DF196D5512292D40",12,true,,
66,"SERGEANT BUMATAY ST., BARANGAY PLAINVIEW, MANDALUYONG CITY",14.573801,121.035355,"BARREL/YELLOW","""2025-06-25T06:36:29.373Z""","0101000020E610000001309E4143425E40FED2A23EC9252D40",12,false,,"No water supply"
67,"BUENCONSEJO SAN RAFAEL ST, BARANGAY PLAINVIEW, MANDALUYONG CITY",14.577839,121.039192,"BARREL/YELLOW","""2025-06-25T06:36:29.373Z""","0101000020E6100000F390291F82425E40EAB46E83DA272D40",12,false,,"Loose Thread"
68,"SANTO ROSARIO STREET CORNER SAN PEDRO STREET BARANGAY PLAINVIEW, MANDALUYONG CITY",14.577898,121.032169,"BARREL/YELLOW","""2025-06-25T06:36:29.373Z""","0101000020E61000007BBC900E0F425E40FDD8243FE2272D40",12,true,,
69,"STO. ROSARIO EXTENSION, BARANGAY PLAINVIEW, MANDALUYONG CITY",14.577358,121.030297,"BARREL/YELLOW","""2025-06-25T06:36:29.373Z""","0101000020E6100000AF0AD462F0415E40FE2AC0779B272D40",12,true,,
70,"SAN RAFAEL ST. CORNER BONI AVE., BARANGAY MALAMIG, MANDALUYONG CITY",14.580668,121.030345,"BARREL/YELLOW","""2025-06-25T06:36:29.373Z""","0101000020E610000037A6272CF1415E40DEAAEB504D292D40",11,true,,
71,"F.B MARTINEZ AVENUE, BARANGAY PLAINVIEW, MANDALUYONG CITY",14.579449,121.035834,"BARREL/YELLOW","""2025-06-25T06:36:29.373Z""","0101000020E61000006E85B01A4B425E405A66118AAD282D40",12,true,,
72,"TANGLAW COR. SOUTH SIKAP ST., BARANGAY PLAINVIEW, MANDALUYONG CITY",14.574936,121.036738,"BARREL/YELLOW","""2025-06-25T06:36:29.373Z""","0101000020E61000004F2157EA59425E400B96EA025E262D40",12,true,,
73,"MAYSILO CIRCLE, BARANGAY PLAINVIEW, MANDALUYONG CITY",14.578151,121.034242,"BARREL/YELLOW","""2025-06-25T06:45:54.006Z""","0101000020E610000094895B0531425E40A54C6A6803282D40",12,true,,
74,"MARIA CLARA COR. GINHAWA ST. BRGY.PLAINVIEW, MANDALUYONG CITY",14.574076,121.038477,"BARREL/YELLOW","""2025-06-25T06:45:54.006Z""","0101000020E61000007C293C6876425E4045D61A4AED252D40",12,true,,
75,"F.B MARTINEZ AVENUE, ADDITION HILLS, MANDALUYONG CITY",14.58404,121.037138,"BARREL/YELLOW","""2025-06-25T06:45:54.006Z""","0101000020E610000016DC0F7860425E40971C774A072B2D40",18,true,,
76,"CLAIRMONT DRIVE ACCIA LANE BARANGAY ADDITION HILLS, MANDALUYONG CITY",14.588739,121.035588,"BARREL/YELLOW","""2025-06-25T06:45:54.006Z""","0101000020E61000005308E41247425E406EC2BD326F2D2D40",18,true,,
77,"PILAR STREET CORNER SHAW BLVD. ADDITION HILLS, MANDALUYONG CITY",14.589158,121.042068,"BARREL/YELLOW","""2025-06-25T06:45:54.006Z""","0101000020E6100000520DFB3DB1425E40815A0C1EA62D2D40",18,false,,"Loose Thread, Stock up Gasket"
78,"NUEVE DE PEBRERO ST. ADDITION HILLS, MANDALUYONG CITY",14.588353,121.03761,"BARREL/YELLOW","""2025-06-25T06:45:54.006Z""","0101000020E61000002A00C63368425E40C901BB9A3C2D2D40",18,false,,"Loose Thread"
79,"BRGY. ROAD, ADDITION HILLS, MANDALUYONG CITY",14.585824,121.037753,"BARREL/YELLOW","""2025-06-25T06:45:54.006Z""","0101000020E6100000DB148F8B6A425E407F6C921FF12B2D40",18,true,,
80,"F. MARTINEZ AVE. CORNER BLOCK 40 BUROL ST., BARANGAY ADDITION HILLS, MANDALUYONG CITY",14.582042,121.036752,"BARREL/YELLOW","""2025-06-25T06:45:54.006Z""","0101000020E610000002840F255A425E40FFCBB568012A2D40",18,true,,"Obstruction by garbage"
81,"DOH ACCIA LANE, PERAS STREET, BARANGAY ADDITION HILLS, MANDALUYONG CITY",14.585218,121.034959,"BARREL/YELLOW","""2025-06-25T06:45:54.006Z""","0101000020E6100000DB6CACC43C425E40A10F96B1A12B2D40",18,true,,
82,"287 BRGY. MABINI- J RIZAL, MANDALUYONG CITY",14.583972,121.021218,"BARREL/YELLOW","""2025-06-25T06:45:54.006Z""","0101000020E61000008A05BEA25B415E40368FC360FE2A2D40",27,true,,
83,"2 VILLARICA ST., BRGY. MABINI- J RIZAL, MANDALUYONG CITY",14.58673,121.022647,"BARREL/YELLOW","""2025-06-25T06:45:54.006Z""","0101000020E61000009016670C73415E40062AE3DF672C2D40",27,true,,
84,"331 NANIRAHAN, BRGY. MABINI- J RIZAL, MANDALUYONG CITY",14.586348,121.023666,"BARREL/YELLOW","""2025-06-25T06:45:54.006Z""","0101000020E6100000BD0166BE83415E40672618CE352C2D40",27,true,,
85,"3161 F ROXAS, BRGY. MABINI- J RIZAL, MANDALUYONG CITY",14.587353,121.021215,"BARREL/YELLOW","""2025-06-25T06:45:54.006Z""","0101000020E6100000D1CB28965B415E403C6A4C88B92C2D40",27,true,,
86,"54 A, BRGY. MABINI- J RIZAL, MANDALUYONG CITY",14.586753,121.022648,"BARREL/YELLOW","""2025-06-25T06:45:54.006Z""","0101000020E610000078D4981073415E40E7A8A3E36A2C2D40",27,true,,
87,"ABELLA ST., BRGY. MABINI- J RIZAL, MANDALUYONG CITY",14.585452,121.021372,"BARREL/YELLOW","""2025-06-25T06:45:54.006Z""","0101000020E61000003543AA285E415E406EC1525DC02B2D40",27,true,,
88,"567 SANIBOY ST. BRGY. HULO, MANDALUYONG CITY",14.5748,121.026201,"BARREL/YELLOW","""2025-06-25T06:45:54.006Z""","0101000020E6100000D787F546AD415E404A7B832F4C262D40",5,true,,
89,"561 RET REV AGLIPAY, BRGY. HULO, MANDALUYONG CITY",14.576849,121.027258,"BARREL/YELLOW","""2025-06-25T06:45:54.006Z""","0101000020E61000007BA35698BE415E40EA758BC058272D40",5,true,,
90,"41 PRIVATE RD BRGY. HULO, MANDALUYONG CITY",14.573522,121.030113,"BARREL/YELLOW","""2025-06-25T06:45:54.006Z""","0101000020E6100000CE8B135FED415E40B212F3ACA4252D40",5,true,,
91,"160 PRIVATE RD., BRGY. HULO, MANDALUYONG CITY",14.571182,121.033125,"BARREL/YELLOW","""2025-06-25T06:45:54.006Z""","0101000020E610000085EB51B81E425E40B42094F771242D40",5,true,,
92,"741 E. PANTALEON, BRGY. HULO, MANDALUYONG CITY",14.569611,121.03518,"BARREL/YELLOW","""2025-06-25T06:45:54.006Z""","0101000020E61000004A5E9D6340425E403BE2900DA4232D40",5,true,,
93,"599 RET REV AGLIPAY, BRGY. HULO, MANDALUYONG CITY",14.575327,121.02792,"BARREL/YELLOW","""2025-06-25T06:45:54.006Z""","0101000020E6100000E0B9F770C9415E40F702B34291262D40",5,true,,
94,"168 CORONADO, BRGY. HULO, MANDALUYONG CITY",14.570002,121.031873,"BARREL/YELLOW","""2025-06-25T06:45:54.006Z""","0101000020E610000007280D350A425E40274F594DD7232D40",5,true,,
95,"425 SAN JOSE, SITIO IV, BRGY. HULO, MANDALUYONG CITY",14.569924,121.033502,"BARREL/YELLOW","""2025-06-25T06:45:54.006Z""","0101000020E6100000709692E524425E4038691A14CD232D40",5,true,,
96,"930 MRR TRACK, BRGY. BARANGKA IBABA MANDALUYONG CITY",14.568003,121.038205,"BARREL/YELLOW","""2025-06-25T06:45:54.006Z""","0101000020E6100000CC6262F371425E404D0F0A4AD1222D40",9,true,,
97,"24 P. CRUZ BRGY. BARANGKA IBABA, MANDALUYONG CITY",14.569298,121.039619,"BARREL/YELLOW","""2025-06-25T06:45:54.006Z""","0101000020E61000003753211E89425E403E5B07077B232D40",9,true,,
98,"E PANTALEON ST. BRGY. BARANGKA IBABA, MANDALUYONG CITY",14.569568,121.039948,"BARREL/YELLOW","""2025-06-25T06:45:54.006Z""","0101000020E610000099620E828E425E403EB2B96A9E232D40",9,true,,
99,"31 P. OLIVEROS, BRGY, BARANGKA IBABA MANDALUYONG CITY",14.570888,121.040157,"BARREL/YELLOW","""2025-06-25T06:45:54.006Z""","0101000020E6100000266DAAEE91425E40925B936E4B242D40",9,true,,
100,"P CRUZ COUNTRY SIDE, BRGY. BARANGKA IBABA, MANDALUYONG CITY",14.570394,121.038348,"BARREL/YELLOW","""2025-06-25T06:45:54.006Z""","0101000020E61000007D772B4B74425E4054ABAFAE0A242D40",9,true,,
101,"64 P CRUZ, BRGY. BARANGKA IBABA, MANDALUYONG CITY",14.570451,121.038321,"BARREL/YELLOW","""2025-06-25T06:45:54.006Z""","0101000020E61000000070ECD973425E40E5F0492712242D40",9,true,,
102,"236 J. SALINGA ST. BRGY. BARANGKA ITAAS, MANDALUYONG CITY",14.57121,121.041147,"BARREL/YELLOW","""2025-06-25T06:45:54.006Z""","0101000020E610000006D50627A2425E40DC4B1AA375242D40",7,true,,
103,"526, JP RIZAL BRGY. VERGARA, MANDALUYONG CITY",14.576243,121.024319,"BARREL/YELLOW","""2025-06-25T06:45:54.006Z""","0101000020E6100000F96A47718E415E400D198F5209272D40",8,true,,
104,"477 M. ALEATAZ BRGY. VERGARA, MANDALUYONG CITY",14.577973,121.022102,"BARREL/YELLOW","""2025-06-25T06:45:54.006Z""","0101000020E610000047CB811E6A415E4028F1B913EC272D40",8,true,,
105,"EXECUTIVE MANSION, G ENRIQUEZ, BRGY. VERGARA MANDALUYONG CITY",14.578852,121.02447,"BARREL/YELLOW","""2025-06-25T06:45:54.006Z""","0101000020E6100000EB6E9EEA90415E40C972124A5F282D40",8,true,,
106,"EXECUTIVE MANSION, G ENRIQUEZ, BRGY. VERGARA MANDALUYONG CITY",14.579467,121.024365,"BARREL/YELLOW","""2025-06-25T06:45:54.006Z""","0101000020E6100000B18A37328F415E40F3380CE6AF282D40",8,true,,
107,"924 I TRINIDAD, MANDALUYONG CITY",14.577484,121.024133,"BARREL/YELLOW","""2025-06-25T06:45:54.006Z""","0101000020E6100000487023658B415E4031ED9BFBAB272D40",8,true,,
108,"410 JP. RIZAL BRGY. NAMAYAN, MANDALUYONG CITY",14.57873,121.020965,"BARREL/YELLOW","""2025-06-25T06:45:54.006Z""","0101000020E61000001557957D57415E409C6D6E4C4F282D40",6,true,,
109,"165 ALLEY 4, BRGY. NAMAYAN, MANDALUYONG CITY",14.580238,121.019288,"BARREL/YELLOW","""2025-06-25T06:45:54.006Z""","0101000020E6100000234DBC033C415E40FBCA83F414292D40",6,true,,
110,"378 DOÃ‘A B. YANGCO, BRGY. NAMAYAN, MANDALUYONG CITY",14.580596,121.020034,"BARREL/YELLOW","""2025-06-25T06:45:54.006Z""","0101000020E6100000B7B3AF3C48415E40786000E143292D40",6,true,,
111,"969 DONA YANGCO, MANDALUYONG CITY",14.58138,121.019103,"BARREL/YELLOW","""2025-06-25T06:45:54.006Z""","0101000020E61000005A10CAFB38415E40D218ADA3AA292D40",6,true,,
112,"324A J.P RIZAL, BRGY NAMAYAN, MANDALUYONG CITY",14.58221,121.012097,"BARREL/YELLOW","""2025-06-25T06:45:54.006Z""","0101000020E61000004DD87E32C6405E40EECEDA6D172A2D40",6,true,,
113,"375, BRGY. JP RIZAL, BRGY. NAMAYAN, MANDALUYONG CITY",14.580555,121.02088,"BARREL/YELLOW","""2025-06-25T06:45:54.006Z""","0101000020E6100000FE48111956415E40FE0E45813E292D40",6,true,,
114,"102 JUPITER JP RIZAL, BRGY. NAMAYAN, MANDALUYONG CITY",14.580942,121.022808,"BARREL/YELLOW","""2025-06-25T06:45:54.006Z""","0101000020E61000009485AFAF75415E40E4BED53A71292D40",6,true,,
115,"651 GEN KALENTONG ST., BRGY. PAGASA, MANDALUYONG CITY",14.589871,121.024223,"BARREL/YELLOW","""2025-06-25T06:45:54.006Z""","0101000020E6100000E833A0DE8C415E40B7B75B92032E2D40",21,true,,
116,"858 INOCENTES ST., CORNER MODESTA MATEO ST. BRGY. PAGASA, MANDALUYONG CITY",14.588524,121.024919,"BARREL/YELLOW","""2025-06-25T06:45:54.006Z""","0101000020E61000002383DC4598415E407CD28904532D2D40",21,true,,
117,"7 SHAW BLVD., BRGY. BAKAL, MANDALUYONG CITY",14.593638,121.027167,"BARREL/YELLOW","""2025-06-25T06:45:54.006Z""","0101000020E6100000F321A81ABD415E406153E751F12F2D40",23,true,,
118,"UNIT 1 TFN BUILDING KALENTONG, CORNER HAIG ST., MANDALUYONG CITY",14.595028,121.027551,"BARREL/YELLOW","""2025-06-25T06:45:54.006Z""","0101000020E610000037FE4465C3415E4098689082A7302D40",23,true,,
119,"269 A LUNA ST., BRGY. BUROL, MANDALUYONG CITY",14.588933,121.027246,"BARREL/YELLOW","""2025-06-25T06:45:54.006Z""","0101000020E610000099BC0166BE415E4002124DA0882D2D40",13,true,,
120,"PAG-ASA ST.,-MAGALONA, BRGY. BUROL, MANDALUYONG CITY",14.590254,121.027635,"BARREL/YELLOW","""2025-06-25T06:45:54.006Z""","0101000020E6100000664E97C5C4415E4097AAB4C5352E2D40",13,true,,
121,"CAVO F. SANCHEZ ST., BRGY. HAGDAN BATO ITAAS, MANDALUYONG CITY",14.588392,121.030712,"BARREL/YELLOW","""2025-06-25T06:45:54.006Z""","0101000020E610000010E6762FF7415E40C1745AB7412D2D40",15,true,,
122,"M. GONZAGA ST., BRGY. HAGDAN BATO ITAAS, MANDALUYONG CITY",14.588573,121.032325,"BARREL/YELLOW","""2025-06-25T06:45:54.006Z""","0101000020E6100000F775E09C11425E40029EB470592D2D40",15,true,,"Loose thread"
123,"P. BURGOS ST., COR C.F SANCHEZ, BRGY. HAGDAN BATO ITAAS, MANDALUYONG CITY",14.588687,121.029291,"BARREL/YELLOW","""2025-06-25T06:45:54.006Z""","0101000020E61000004CC45BE7DF415E402429E961682D2D40",15,true,,
124,"F. ORTIGAS ST. COR T. BERNARDO, BRGY. HAGDAN BATO ITAAS, MANDALUYONG CITY",14.585809,121.031255,"BARREL/YELLOW","""2025-06-25T06:45:54.006Z""","0101000020E610000089B5F81400425E40A9674128EF2B2D40",15,true,,
125,"SEN. NEPTALI GONZALES ST. COR J. LUNA EXT. ST., BRGY. HAGDAN BATO ITAAS, MANDALUYONG CITY",14.59065,121.030034,"BARREL/YELLOW","""2025-06-25T06:45:54.006Z""","0101000020E610000028F1B913EC415E40CAC342AD692E2D40",15,true,,"Loose thread"
126,"AT REYES ST. COR. REV. AGLIPAY ST., BRGY POBLACION, MANDALUYONG CITY",14.586294,121.025745,"BARREL/YELLOW","""2025-06-25T06:45:54.006Z""","0101000020E610000046425BCEA5415E409BAE27BA2E2C2D40",26,true,,
127,"AT REYES ST. COR. STAR ST., BRGY. POBLACION, MANDALUYONG CITY",14.588011,121.026682,"BARREL/YELLOW","""2025-06-25T06:45:54.006Z""","0101000020E610000014596B28B5415E4063601DC70F2D2D40",26,true,,
128,"169 I LOPEZ ST., BRGY. POBLACION, MANDALUYONG CITY",14.586186,121.028855,"BARREL/YELLOW","""2025-06-25T06:45:54.006Z""","0101000020E6100000DE54A4C2D8415E4001BF4692202C2D40",26,true,,
129,"P. GOMEZ ST., CORNER SATURDAY ST., MANDALUYONG CITY",14.587418,121.029775,"BARREL/YELLOW","""2025-06-25T06:45:54.006Z""","0101000020E610000042CF66D5E7415E40D829560DC22C2D40",26,true,,
130,"412 COR. STAR ST., BRGY. POBLACION, MANDALUYONG CITY",14.587333,121.028045,"BARREL/YELLOW","""2025-06-25T06:45:54.006Z""","0101000020E61000003F74417DCB415E401FB935E9B62C2D40",26,true,,
131,"431 VARGAS ST., CORNER SHAW BLVD., BRGY. BAGONG SILANG, MANDALUYONG CITY",14.591486,121.03185,"BARREL/YELLOW","""2025-06-25T06:45:54.006Z""","0101000020E61000002B1895D409425E406E15C440D72E2D40",22,true,,
132,"16 LAWSON ST, CORNER SHAW BLVD., BRGY. BAGONG SILANG, MANDALUYONG CITY",14.592005,121.030913,"BARREL/YELLOW","""2025-06-25T06:45:54.006Z""","0101000020E61000005C01857AFA415E40102384471B2F2D40",22,true,,
133,"SEN. NEPTALI GONZALES ST. COR MAGALONA ST., HARAPIN ANG BUKAS, MANDALUYONG CITY",14.591156,121.028795,"BARREL/YELLOW","""2025-06-25T06:45:54.006Z""","0101000020E610000074D2FBC6D7415E4019ABCDFFAB2E2D40",14,true,,
134,"825 NUEVE DE PEBRERO ST, BARANGAY MAUWAY, MANDALUYONG CITY",14.580994,121.044334,"BARREL/YELLOW","""2025-06-25T06:45:54.006Z""","0101000020E61000007506465ED6425E402E58AA0B78292D40",17,true,40,
135,"BLOCK 5 COR 9 PEBRERO, BARANGAY MAUWAY, MANDALUYONG CITY",14.58564,121.044437,"BARREL/YELLOW","""2025-06-25T06:45:54.006Z""","0101000020E6100000DF6E490ED8425E4079758E01D92B2D40",17,true,55,
136,"AMARILLO ST COR 9 DE PEBRERO, BARANGAY MAUWAY, MANDALUYONG CITY",14.583168,121.044718,"BARREL/YELLOW","""2025-06-25T06:45:54.006Z""","0101000020E6100000B9E2E2A8DC425E40C02500FF942A2D40",17,true,40,
137,"9 DE PEBRERO ST COR CALBAYOG EXT., BARANGAY MAUWAY, MANDALUYONG CITY",14.581937,121.044317,"BARREL/YELLOW","""2025-06-25T06:45:54.006Z""","0101000020E61000000A6AF816D6425E402AAA7EA5F3292D40",17,true,50,
138,"441 BONI AVE. COR BARANGKA DRIVE, BARANGAY MALAMIG, MANDALUYONG CITY",14.575875,121.041175,"BARREL/YELLOW","""2025-06-25T06:45:54.006Z""","0101000020E61000006B9A779CA2425E40022B8716D9262D40",11,false,,"Loose Thread"
139,"1515 PINATUBO ST. COR BONI AVE, BARANGAY MALAMIG, MANDALUYONG CITY",14.57319,121.045967,"BARREL/YELLOW","""2025-06-25T06:45:54.006Z""","0101000020E61000007F6C921FF1425E40DAC9E02879252D40",11,true,65,
140,"ARAYAT ST COR BULUSAN ST, BARANGAY MALAMIG, MANDALUYONG CITY",14.576024,121.046381,"BARREL/YELLOW","""2025-06-25T06:45:54.006Z""","0101000020E6100000F88903E8F7425E40166C239EEC262D40",11,true,55,
141,"2 ARAYAT ST, BARANGAY MALAMIG, MANDALUYONG CITY",14.57871,121.044313,"BARREL/YELLOW","""2025-06-25T06:45:54.006Z""","0101000020E610000069723106D6425E407FBC57AD4C282D40",11,true,50,
142,"527 HALCON ST. COR TALAYAAN ST., BARANGAY MALAMIG, MANDALUYONG CITY",14.576753,121.042819,"BARREL/YELLOW","""2025-06-25T06:45:54.006Z""","0101000020E61000006F29E78BBD425E4062BD512B4C272D40",11,true,30,
143,"8 S LAUREL ST, BARANGAY PLEASANT HILLS, MANDALUYONG CITY",14.587733,121.043992,"BARREL/YELLOW","""2025-06-25T06:45:54.006Z""","0101000020E61000004852D2C3D0425E40588FFB56EB2C2D40",16,true,50,"No supply of Water in the upper valve"
144,"VM TOWNHOUSE 9 DE PEBRERO ST , BARANGAY PLEASANT HILLS, MANDALUYONG CITY",14.586638,121.041155,"BARREL/YELLOW","""2025-06-25T06:45:54.006Z""","0101000020E610000048C49448A2425E40842EE1D05B2C2D40",16,true,50,
145,"9 DE PEBRERO COR LAUREL ST., BARANGAY PLEASANT HILLS, MANDALUYONG CITY",14.586653,121.043218,"BARREL/YELLOW","""2025-06-25T06:45:54.006Z""","0101000020E61000004E266E15C4425E40593332C85D2C2D40",16,false,,"No supply of water"
146,"411 SHAW, BARANGAY PLEASANT HILLS, MANDALUYONG CITY",14.589547,121.0401,"BARREL/YELLOW","""2025-06-25T06:45:54.006Z""","0101000020E6100000742497FF90425E40EAE8B81AD92D2D40",16,true,50,"Lower operating stem nut was already worn out and can no longer be turned by the hydrant key"
147,"212 JAIME CARDINAL SIN ST, BARANGAY PLEASANT HILLS, MANDALUYONG CITY",14.588666,121.040145,"BARREL/YELLOW","""2025-06-25T06:45:54.006Z""","0101000020E6100000448655BC91425E40C68844A1652D2D40",16,true,50,
148,"843 TORRES ST, BARANGAY PLEASANT HILLS, MANDALUYONG CITY",14.59223,121.039305,"BARREL/YELLOW","""2025-06-25T06:45:54.006Z""","0101000020E61000006F641EF983425E40906B43C5382F2D40",16,true,50,
149,"A MABINI SHAW BLVD, BARANGAY PLEASANT HILLS, MANDALUYONG CITY",14.589192,121.042092,"BARREL/YELLOW","""2025-06-25T06:45:54.006Z""","0101000020E610000016DBA4A2B1425E403221E692AA2D2D40",16,false,,"Low water pressure"
150,"CORRECTIONAL ROAD, BARANGAY PLEASANT HILLS, MANDALUYONG CITY",14.58295,121.0385,"BARREL/YELLOW","""2025-06-25T06:45:54.006Z""","0101000020E61000005839B4C876425E400A68226C782A2D40",16,false,,"Hydrant was already disabled"
151,"RR1 BUILDING, 811 SOTERO LAUREL ST., COR MC COLOUGH ST., BRGY PLEASANT HILLS, MANDALUYONG CITY",14.588927,121.044938,"BARREL/YELLOW","""2025-06-25T06:45:54.006Z""","0101000020E61000004016A243E0425E407976F9D6872D2D40",16,true,50,
152,"CORRECTIONAL ROAD, BARANGAY PLEASANT HILLS, MANDALUYONG CITY",14.582155,121.037784,"BARREL/YELLOW","""2025-06-25T06:45:54.006Z""","0101000020E6100000F913950D6B425E40E0675C38102A2D40",16,true,45,
153,"24 M. YULO ST, BARANGAY HAGDANG BATO LIBIS, MANDALUYONG CITY",14.591003,121.033564,"BARREL/YELLOW","""2025-06-25T06:45:54.006Z""","0101000020E6100000AB949EE925425E4000ADF9F1972E2D40",24,true,50,
154,"333 A. BONIFACIO, BARANGAY HAGDANG BATO LIBIS, MANDALUYONG CITY",14.588618,121.033018,"BARREL/YELLOW","""2025-06-25T06:45:54.006Z""","0101000020E61000007A8B87F71C425E4082ACA7565F2D2D40",24,false,,"Loose thread"
155,"309 ACACIA LANE, BARANGAY HAGDANG BATO LIBIS, MANDALUYONG CITY",14.58868,121.035563,"BARREL/YELLOW","""2025-06-25T06:45:54.006Z""","0101000020E6100000A67C08AA46425E405A9E0777672D2D40",24,true,60,
57,"AGLIPAY ST. CORNER DE VENENCIA ST., BRGY. OLD ZANIGA, MANDALUYONG CITY",14.584226,121.025165,"BARREL/YELLOW","""2025-06-25T06:36:03.524Z""","0101000020E61000003F00A94D9C415E401FF296AB1F2B2D40",25,true,,